NORAD_CAT_ID,OBJECT_NAME,OBJECT_TYPE,EPOCH,MEAN_MOTION,ECCENTRICITY,INCLINATION,RA_OF_ASC_NODE,ARG_OF_PERICENTER,MEAN_ANOMALY,BSTAR,MEAN_MOTION_DOT,MEAN_MOTION_DDOT,TLE_LINE0,TLE_LINE1,TLE_LINE2,SEMIMAJOR_AXIS,PERIOD,APOGEE,PERIGEE,DECAYED
53842.0,STARLINK-4754,PAYLOAD,2023-12-20 06:04:32,15.08845596,0.0001265,53.2173,332.2819,86.6905,273.4232,0.00021777,3.18e-05,0.0,0 STARLINK-4754,1 53842U 22114AA  23354.25314941  .00003180  00000-0  21777-3 0  9997,2 53842  53.2173 332.2819 0001265  86.6905 273.4232 15.08845596 70080,6917.863,95.437,540.603,538.853,0.0
53842.0,STARLINK-4754,PAYLOAD,2023-12-21 05:55:19,15.08855647,0.000204,53.2184,327.8236,52.4546,307.6632,0.00046984,7.201e-05,0.0,0 STARLINK-4754,1 53842U 22114AA  23355.24674999  .00007201  00000-0  46984-3 0  9994,2 53842  53.2184 327.8236 0002040  52.4546 307.6632 15.08855647 70777,6917.833,95.437,541.109,538.286,0.0
53842.0,STARLINK-4754,PAYLOAD,2023-12-22 04:10:45,15.08817767,0.0002316,53.2176,323.6616,56.4514,303.6699,-0.00019808,-3.438e-05,0.0,0 STARLINK-4754,1 53842U 22114AA  23356.17413318 -.00003438  00000-0 -19808-3 0  9998,2 53842  53.2176 323.6616 0002316  56.4514 303.6699 15.08817767 70375,6917.948,95.439,541.416,538.211,0.0
53842.0,STARLINK-4754,PAYLOAD,2023-12-22 05:46:08,15.08830357,0.0002081,53.2182,323.3617,63.8795,296.2411,0.00012374,1.681e-05,0.0,0 STARLINK-4754,1 53842U 22114AA  23356.24037104  .00001681  00000-0  12374-3 0  9998,2 53842  53.2182 323.3617 0002081  63.8795 296.2411 15.08830357 70382,6917.91,95.438,541.214,538.335,0.0
53842.0,STARLINK-4754,PAYLOAD,2023-12-23 04:01:31,15.08870875,0.0002122,53.2175,319.1997,70.4473,289.6748,0.0014126,0.00022284,0.0,0 STARLINK-4754,1 53842U 22114AA  23357.16772651  .00022284  00000-0  14126-2 0  9991,2 53842  53.2175 319.1997 0002122  70.4473 289.6748 15.08870875 70525,6917.786,95.436,541.119,538.183,0.0
53842.0,STARLINK-4754,PAYLOAD,2023-12-23 07:12:17,15.08882855,0.0002003,53.2177,318.6023,76.1737,283.9478,0.0016334,0.00025834,0.0,0 STARLINK-4754,1 53842U 22114AA  23357.30020164  .00025834  00000-0  16334-2 0  9999,2 53842  53.2177 318.6023 0002003  76.1737 283.9478 15.08882855 71085,6917.749,95.435,541.0,538.229,0.0
53842.0,STARLINK-4754,PAYLOAD,2023-12-23 21:30:45,15.08858056,0.0001741,53.2164,315.9325,77.0528,283.0659,0.0011041,0.00017336,0.0,0 STARLINK-4754,1 53842U 22114AA  23357.89636103  .00017336  00000-0  11041-2 0  9997,2 53842  53.2164 315.9325 0001741  77.0528 283.0659 15.08858056 71170,6917.825,95.436,540.895,538.486,0.0
53842.0,STARLINK-4754,PAYLOAD,2023-12-24 03:52:17,15.08861086,0.0001495,53.2175,314.7417,74.3258,285.7899,0.0016239,0.00025666,0.0,0 STARLINK-4754,1 53842U 22114AA  23358.16131863  .00025666  00000-0  16239-2 0  9990,2 53842  53.2175 314.7417 0001495  74.3258 285.7899 15.08861086 70673,6917.816,95.436,540.715,538.647,0.0
53842.0,STARLINK-4754,PAYLOAD,2023-12-24 07:03:03,15.08868392,0.0001565,53.2164,314.1446,79.0235,281.0933,0.001635,0.00025849,0.0,0 STARLINK-4754,1 53842U 22114AA  23358.29379577  .00025849  00000-0  16350-2 0  9997,2 53842  53.2164 314.1446 0001565  79.0235 281.0933 15.08868392 71230,6917.794,95.436,540.741,538.576,0.0
53842.0,STARLINK-4754,PAYLOAD,2023-12-25 03:43:04,15.08863854,0.0001566,53.2171,310.2787,91.6004,268.5167,0.0017649,0.0002793,0.0,0 STARLINK-4754,1 53842U 22114AA  23359.15491442  .00027930  00000-0  17649-2 0  9994,2 53842  53.2171 310.2787 0001566  91.6004 268.5167 15.08863854 70829,6917.807,95.436,540.756,538.589,0.0
53842.0,STARLINK-4754,PAYLOAD,2023-12-25 21:12:19,15.08847358,0.0001881,53.2173,307.0075,119.5724,240.5455,0.0014781,0.00023319,0.0,0 STARLINK-4754,1 53842U 22114AA  23359.88355663  .00023319  00000-0  14781-2 0  9999,2 53842  53.2173 307.0075 0001881 119.5724 240.5455 15.08847358 71477,6917.858,95.437,541.024,538.422,0.0
53842.0,STARLINK-4754,PAYLOAD,2023-12-26 03:33:51,15.08847318,0.0001829,53.2175,305.8175,118.4069,241.7108,0.00090946,0.00014219,0.0,0 STARLINK-4754,1 53842U 22114AA  23360.14851543  .00014219  00000-0  90946-3 0  9995,2 53842  53.2175 305.8175 0001829 118.4069 241.7108 15.08847318 70976,6917.858,95.437,540.988,538.458,0.0
53842.0,STARLINK-4754,PAYLOAD,2023-12-26 06:44:37,15.08851552,0.0001799,53.2175,305.2227,118.5256,241.5918,0.00091835,0.00014362,0.0,0 STARLINK-4754,1 53842U 22114AA  23360.28099438  .00014362  00000-0  91835-3 0  9994,2 53842  53.2175 305.2227 0001799 118.5256 241.5918 15.08851552 71538,6917.845,95.437,540.955,538.466,0.0
53842.0,STARLINK-4754,PAYLOAD,2023-12-26 21:03:06,15.08837062,0.0002012,53.2174,302.5424,109.7349,250.386,0.00028857,4.307e-05,0.0,0 STARLINK-4754,1 53842U 22114AA  23360.87715883  .00004307  00000-0  28857-3 0  9990,2 53842  53.2174 302.5424 0002012 109.7349 250.3860 15.08837062 71624,6917.889,95.438,541.146,538.362,0.0
53842.0,STARLINK-4754,PAYLOAD,2023-12-27 01:49:15,15.08837499,0.0001828,53.2176,301.6511,107.5325,252.5867,4.8441e-05,4.83e-06,0.0,0 STARLINK-4754,1 53842U 22114AA  23361.07587731  .00000483  00000-0  48441-4 0  9995,2 53842  53.2176 301.6511 0001828 107.5325 252.5867 15.08837499 71116,6917.888,95.438,541.018,538.488,0.0
53842.0,STARLINK-4754,PAYLOAD,2023-12-27 20:53:53,15.0883807,0.0001744,53.2166,298.0827,112.2995,247.8182,7.9177e-05,9.72e-06,0.0,0 STARLINK-4754,1 53842U 22114AA  23361.87076094  .00000972  00000-0  79177-4 0  9991,2 53842  53.2166 298.0827 0001744 112.2995 247.8182 15.08838070 71772,6917.886,95.438,540.958,538.545,0.0
53842.0,STARLINK-4754,PAYLOAD,2023-12-28 03:15:26,15.08841241,0.0001561,53.2168,296.8998,103.2452,256.8714,0.0001132,1.514e-05,0.0,0 STARLINK-4754,1 53842U 22114AA  23362.13572126  .00001514  00000-0  11320-3 0  9996,2 53842  53.2168 296.8998 0001561 103.2452 256.8714 15.08841241 71274,6917.877,95.437,540.821,538.662,0.0
53842.0,STARLINK-4754,PAYLOAD,2023-12-28 06:26:12,15.08843652,0.0001628,53.2169,296.3031,106.5386,253.5785,0.00014987,2.098e-05,0.0,0 STARLINK-4754,1 53842U 22114AA  23362.26820025  .00002098  00000-0  14987-3 0  9994,2 53842  53.2169 296.3031 0001628 106.5386 253.5785 15.08843652 71836,6917.869,95.437,540.86,538.608,0.0
53842.0,STARLINK-4754,PAYLOAD,2023-12-29 04:41:36,15.08846468,0.0001589,53.217,292.1388,99.1062,261.011,0.00020508,2.978e-05,0.0,0 STARLINK-4754,1 53842U 22114AA  23363.19555997  .00002978  00000-0  20508-3 0  9993,2 53842  53.2170 292.1388 0001589  99.1062 261.0110 15.08846468 71431,6917.861,95.437,540.825,538.626,0.0
53842.0,STARLINK-4754,PAYLOAD,2023-12-30 02:57:00,15.0884551,0.0001653,53.217,287.9772,87.2995,272.8186,0.00013886,1.923e-05,0.0,0 STARLINK-4754,1 53842U 22114AA  23364.12292068  .00001923  00000-0  13886-3 0  9994,2 53842  53.2170 287.9772 0001653  87.2995 272.8186 15.08845510 71570,6917.864,95.437,540.872,538.585,0.0
53842.0,STARLINK-4754,PAYLOAD,2023-12-30 04:32:23,15.0884854,0.0001598,53.217,287.6772,95.641,264.4764,0.00019647,2.841e-05,0.0,0 STARLINK-4754,1 53842U 22114AA  23364.18915837  .00002841  00000-0  19647-3 0  9997,2 53842  53.2170 287.6772 0001598  95.6410 264.4764 15.08848540 72127,6917.854,95.437,540.825,538.614,0.0
53842.0,STARLINK-4754,PAYLOAD,2023-12-30 18:50:51,15.08838803,0.0001522,53.2178,284.9987,115.8531,244.2618,2.442e-05,1.01e-06,0.0,0 STARLINK-4754,1 53842U 22114AA  23364.78532337  .00000101  00000-0  24420-4 0  9996,2 53842  53.2178 284.9987 0001522 115.8531 244.2618 15.08838803 71673,6917.884,95.438,540.802,538.696,0.0
53842.0,STARLINK-4754,PAYLOAD,2023-12-31 04:23:10,15.08849143,0.0001432,53.2171,283.2185,101.2758,258.8395,6.2721e-05,7.11e-06,0.0,0 STARLINK-4754,1 53842U 22114AA  23365.18275740  .00000711  00000-0  62721-4 0  9996,2 53842  53.2171 283.2185 0001432 101.2758 258.8395 15.08849143 71737,6917.852,95.437,540.708,538.727,0.0
53842.0,STARLINK-4754,PAYLOAD,2023-12-31 21:52:25,15.088457,0.0001752,53.2185,279.9478,120.7889,239.3276,-3.483e-05,-8.42e-06,0.0,0 STARLINK-4754,1 53842U 22114AA  23365.91140153 -.00000842  00000-0 -34830-4 0  9993,2 53842  53.2185 279.9478 0001752 120.7889 239.3276 15.08845700 72384,6917.863,95.437,540.94,538.516,0.0
53842.0,STARLINK-4754,PAYLOAD,2024-01-01 04:13:57,15.08847116,0.0001542,53.2175,278.758,91.6449,268.472,3.773e-05,3.13e-06,0.0,0 STARLINK-4754,1 53842U 22114AA  24001.17635972  .00000313  00000-0  37730-4 0  9990,2 53842  53.2175 278.7580 0001542  91.6449 268.4720 15.08847116 72424,6917.859,95.437,540.79,538.657,0.0
53842.0,STARLINK-4754,PAYLOAD,2024-01-01 21:43:12,15.08841616,0.000162,53.2178,275.4862,100.7292,259.3882,4.3212e-05,4e-06,0.0,0 STARLINK-4754,1 53842U 22114AA  24001.90500218  .00000400  00000-0  43212-4 0  9994,2 53842  53.2178 275.4862 0001620 100.7292 259.3882 15.08841616 72538,6917.875,95.437,540.861,538.62,0.0
53842.0,STARLINK-4754,PAYLOAD,2024-01-02 04:04:44,15.08843665,0.0001632,53.2178,274.2968,99.8559,260.2618,4.9814e-05,5.05e-06,0.0,0 STARLINK-4754,1 53842U 22114AA  24002.16995974  .00000505  00000-0  49814-4 0  9990,2 53842  53.2178 274.2968 0001632  99.8559 260.2618 15.08843665 72038,6917.869,95.437,540.863,538.605,0.0
53842.0,STARLINK-4754,PAYLOAD,2024-01-02 21:33:59,15.08839212,0.0001684,53.2175,271.0249,110.1006,250.0168,4.9792e-05,5.04e-06,0.0,0 STARLINK-4754,1 53842U 22114AA  24002.89860191  .00000504  00000-0  49792-4 0  9996,2 53842  53.2175 271.0249 0001684 110.1006 250.0168 15.08839212 72684,6917.883,95.438,540.913,538.583,0.0
53842.0,STARLINK-4754,PAYLOAD,2024-01-02 23:09:22,15.08839407,0.0001678,53.2176,270.7276,109.5234,250.594,4.8386e-05,4.82e-06,0.0,0 STARLINK-4754,1 53842U 22114AA  24002.96484178  .00000482  00000-0  48386-4 0  9994,2 53842  53.2176 270.7276 0001678 109.5234 250.5940 15.08839407 72150,6917.882,95.438,540.908,538.586,0.0
53842.0,STARLINK-4754,PAYLOAD,2024-01-03 03:55:31,15.08838777,0.000166,53.2176,269.8358,108.4957,251.6215,3.7362e-05,3.07e-06,0.0,0 STARLINK-4754,1 53842U 22114AA  24003.16356254  .00000307  00000-0  37362-4 0  9998,2 53842  53.2176 269.8358 0001660 108.4957 251.6215 15.08838777 72720,6917.884,95.438,540.897,538.601,0.0
